[{"OBJECT_NAME":"STARLINK-30215","OBJECT_ID":"2023-105R","EPOCH":"2025-09-17T23:48:06.359328","MEAN_MOTION":15.0252993,"ECCENTRICITY":4.328e-5,"INCLINATION":43.0026,"RA_OF_ASC_NODE":119.9275,"ARG_OF_PERICENTER":260.7424,"MEAN_ANOMALY":99.3369,"EPHEMERIS_TYPE":0,"CLASSIFICATION_TYPE":"U","NORAD_CAT_ID":57445,"ELEMENT_SET_NO":999,"REV_AT_EPOCH":11942,"BSTAR":3.7622778e-5,"MEAN_MOTION_DOT":3.05e-6,"MEAN_MOTION_DDOT":0},{"OBJECT_NAME":"STARLINK-30162","OBJECT_ID":"2023-105S","EPOCH":"2025-09-16T07:44:07.777536","MEAN_MOTION":15.02537211,"ECCENTRICITY":0.0001184,"INCLINATION":43.0036,"RA_OF_ASC_NODE":116.1668,"ARG_OF_PERICENTER":267.766,"MEAN_ANOMALY":92.3047,"EPHEMERIS_TYPE":0,"CLASSIFICATION_TYPE":"U","NORAD_CAT_ID":57446,"ELEMENT_SET_NO":999,"REV_AT_EPOCH":11948,"BSTAR":4.017534e-5,"MEAN_MOTION_DOT":3.39e-6,"MEAN_MOTION_DDOT":0},{"OBJECT_NAME":"STARLINK-30178","OBJECT_ID":"2023-105T","EPOCH":"2025-09-17T23:46:30.310176","MEAN_MOTION":15.02533174,"ECCENTRICITY":9.884e-5,"INCLINATION":43.0021,"RA_OF_ASC_NODE":119.9191,"ARG_OF_PERICENTER":267.8524,"MEAN_ANOMALY":92.2205,"EPHEMERIS_TYPE":0,"CLASSIFICATION_TYPE":"U","NORAD_CAT_ID":57447,"ELEMENT_SET_NO":999,"REV_AT_EPOCH":11958,"BSTAR":8.7749e-7,"MEAN_MOTION_DOT":-1.92e-6,"MEAN_MOTION_DDOT":0},{"OBJECT_NAME":"STARLINK-30196","OBJECT_ID":"2023-105U","EPOCH":"2025-09-18T01:07:50.967552","MEAN_MOTION":15.02530182,"ECCENTRICITY":0.00010305,"INCLINATION":43.001,"RA_OF_ASC_NODE":119.4819,"ARG_OF_PERICENTER":265.5869,"MEAN_ANOMALY":94.4856,"EPHEMERIS_TYPE":0,"CLASSIFICATION_TYPE":"U","NORAD_CAT_ID":57448,"ELEMENT_SET_NO":999,"REV_AT_EPOCH":11943,"BSTAR":1.2150844e-5,"MEAN_MOTION_DOT":-3.9e-7,"MEAN_MOTION_DDOT":0},{"OBJECT_NAME":"STARLINK-30225","OBJECT_ID":"2023-105V","EPOCH":"2025-09-17T23:27:19.493280","MEAN_MOTION":15.02534229,"ECCENTRICITY":9.806e-5,"INCLINATION":43.0046,"RA_OF_ASC_NODE":119.8162,"ARG_OF_PERICENTER":253.1042,"MEAN_ANOMALY":106.9693,"EPHEMERIS_TYPE":0,"CLASSIFICATION_TYPE":"U","NORAD_CAT_ID":57449,"ELEMENT_SET_NO":999,"REV_AT_EPOCH":11964,"BSTAR":-3.5150288e-5,"MEAN_MOTION_DOT":-6.78e-6,"MEAN_MOTION_DDOT":0},{"OBJECT_NAME":"STARLINK-30217","OBJECT_ID":"2023-105W","EPOCH":"2025-09-17T23:13:22.262592","MEAN_MOTION":15.0253517,"ECCENTRICITY":0.00012716,"INCLINATION":43.0025,"RA_OF_ASC_NODE":107.0612,"ARG_OF_PERICENTER":265.1113,"MEAN_ANOMALY":94.9584,"EPHEMERIS_TYPE":0,"CLASSIFICATION_TYPE":"U","NORAD_CAT_ID":57450,"ELEMENT_SET_NO":999,"REV_AT_EPOCH":11973,"BSTAR":-1.7640094e-5,"MEAN_MOTION_DOT":-4.42e-6,"MEAN_MOTION_DDOT":0},{"OBJECT_NAME":"STARLINK-30216","OBJECT_ID":"2023-105X","EPOCH":"2025-09-17T23:22:32.156256","MEAN_MOTION":15.02529632,"ECCENTRICITY":3.749e-5,"INCLINATION":43.0037,"RA_OF_ASC_NODE":119.8061,"ARG_OF_PERICENTER":333.9577,"MEAN_ANOMALY":26.1246,"EPHEMERIS_TYPE":0,"CLASSIFICATION_TYPE":"U","NORAD_CAT_ID":57451,"ELEMENT_SET_NO":999,"REV_AT_EPOCH":11942,"BSTAR":-0.00021838817,"MEAN_MOTION_DOT":-3.152e-5,"MEAN_MOTION_DDOT":0},{"OBJECT_NAME":"STARLINK-30165","OBJECT_ID":"2023-107A","EPOCH":"2025-09-18T04:50:33.093888","MEAN_MOTION":15.02531044,"ECCENTRICITY":9.63e-5,"INCLINATION":43.0017,"RA_OF_ASC_NODE":196.4865,"ARG_OF_PERICENTER":266.9986,"MEAN_ANOMALY":93.0746,"EPHEMERIS_TYPE":0,"CLASSIFICATION_TYPE":"U","NORAD_CAT_ID":57457,"ELEMENT_SET_NO":999,"REV_AT_EPOCH":11915,"BSTAR":3.1266435e-5,"MEAN_MOTION_DOT":2.19e-6,"MEAN_MOTION_DDOT":0},{"OBJECT_NAME":"STARLINK-30140","OBJECT_ID":"2023-107B","EPOCH":"2025-09-18T04:45:45.791424","MEAN_MOTION":15.02574023,"ECCENTRICITY":0.00012161,"INCLINATION":43.0022,"RA_OF_ASC_NODE":196.4619,"ARG_OF_PERICENTER":279.8286,"MEAN_ANOMALY":80.2419,"EPHEMERIS_TYPE":0,"CLASSIFICATION_TYPE":"U","NORAD_CAT_ID":57458,"ELEMENT_SET_NO":999,"REV_AT_EPOCH":11916,"BSTAR":-0.0008009733,"MEAN_MOTION_DOT":-0.00011017,"MEAN_MOTION_DDOT":0},{"OBJECT_NAME":"STARLINK-30185","OBJECT_ID":"2023-107C","EPOCH":"2025-09-18T04:40:56.264160","MEAN_MOTION":15.02518904,"ECCENTRICITY":7.296e-5,"INCLINATION":42.9965,"RA_OF_ASC_NODE":196.4375,"ARG_OF_PERICENTER":18.7584,"MEAN_ANOMALY":341.3285,"EPHEMERIS_TYPE":0,"CLASSIFICATION_TYPE":"U","NORAD_CAT_ID":57459,"ELEMENT_SET_NO":999,"REV_AT_EPOCH":11916,"BSTAR":0.00052132012,"MEAN_MOTION_DOT":6.842e-5,"MEAN_MOTION_DDOT":0},{"OBJECT_NAME":"STARLINK-30077","OBJECT_ID":"2023-107D","EPOCH":"2025-09-18T04:36:10.608480","MEAN_MOTION":15.0251608,"ECCENTRICITY":0.00014072,"INCLINATION":43.0032,"RA_OF_ASC_NODE":196.4112,"ARG_OF_PERICENTER":288.1295,"MEAN_ANOMALY":71.9394,"EPHEMERIS_TYPE":0,"CLASSIFICATION_TYPE":"U","NORAD_CAT_ID":57460,"ELEMENT_SET_NO":999,"REV_AT_EPOCH":11916,"BSTAR":-4.5366296e-5,"MEAN_MOTION_DOT":-8.16e-6,"MEAN_MOTION_DDOT":0},{"OBJECT_NAME":"STARLINK-30229","OBJECT_ID":"2023-107E","EPOCH":"2025-09-16T13:02:08.126304","MEAN_MOTION":15.02537739,"ECCENTRICITY":0.00011178,"INCLINATION":43.0035,"RA_OF_ASC_NODE":205.5355,"ARG_OF_PERICENTER":273.988,"MEAN_ANOMALY":86.0835,"EPHEMERIS_TYPE":0,"CLASSIFICATION_TYPE":"U","NORAD_CAT_ID":57461,"ELEMENT_SET_NO":999,"REV_AT_EPOCH":11891,"BSTAR":1.650873e-5,"MEAN_MOTION_DOT":1.9e-7,"MEAN_MOTION_DDOT":0},{"OBJECT_NAME":"STARLINK-30088","OBJECT_ID":"2023-107F","EPOCH":"2025-09-18T04:31:20.632800","MEAN_MOTION":15.02545351,"ECCENTRICITY":4.928e-5,"INCLINATION":42.9969,"RA_OF_ASC_NODE":196.3797,"ARG_OF_PERICENTER":208.2949,"MEAN_ANOMALY":151.7867,"EPHEMERIS_TYPE":0,"CLASSIFICATION_TYPE":"U","NORAD_CAT_ID":57462,"ELEMENT_SET_NO":999,"REV_AT_EPOCH":11916,"BSTAR":0.00012953506,"MEAN_MOTION_DOT":1.547e-5,"MEAN_MOTION_DDOT":0},{"OBJECT_NAME":"STARLINK-30091","OBJECT_ID":"2023-107G","EPOCH":"2025-09-18T04:21:47.431872","MEAN_MOTION":15.02516844,"ECCENTRICITY":0.00010621,"INCLINATION":43.0027,"RA_OF_ASC_NODE":196.3351,"ARG_OF_PERICENTER":274.4056,"MEAN_ANOMALY":85.6665,"EPHEMERIS_TYPE":0,"CLASSIFICATION_TYPE":"U","NORAD_CAT_ID":57463,"ELEMENT_SET_NO":999,"REV_AT_EPOCH":11916,"BSTAR":0.00011058221,"MEAN_MOTION_DOT":1.29e-5,"MEAN_MOTION_DDOT":0},{"OBJECT_NAME":"STARLINK-30116","OBJECT_ID":"2023-107J","EPOCH":"2025-09-18T04:23:22.871904","MEAN_MOTION":15.02542531,"ECCENTRICITY":0.00011426,"INCLINATION":43.0011,"RA_OF_ASC_NODE":196.3432,"ARG_OF_PERICENTER":269.2293,"MEAN_ANOMALY":90.8419,"EPHEMERIS_TYPE":0,"CLASSIFICATION_TYPE":"U","NORAD_CAT_ID":57465,"ELEMENT_SET_NO":999,"REV_AT_EPOCH":11916,"BSTAR":0.00010494001,"MEAN_MOTION_DOT":1.214e-5,"MEAN_MOTION_DDOT":0},{"OBJECT_NAME":"STARLINK-30092","OBJECT_ID":"2023-107L","EPOCH":"2025-09-17T05:52:00.170688","MEAN_MOTION":15.02529853,"ECCENTRICITY":0.00010352,"INCLINATION":43.0023,"RA_OF_ASC_NODE":201.3405,"ARG_OF_PERICENTER":258.8238,"MEAN_ANOMALY":101.2488,"EPHEMERIS_TYPE":0,"CLASSIFICATION_TYPE":"U","NORAD_CAT_ID":57467,"ELEMENT_SET_NO":999,"REV_AT_EPOCH":11902,"BSTAR":-5.2823609e-5,"MEAN_MOTION_DOT":-9.17e-6,"MEAN_MOTION_DDOT":0}]
