STARLINK-30215          
1 57445U 23105R   25260.99174027  .00000305  00000+0  37623-4 0  9992
2 57445  43.0026 119.9275 0000432 260.7424  99.3369 15.02529930119422
STARLINK-30162          
1 57446U 23105S   25259.32231224  .00000339  00000+0  40175-4 0  9994
2 57446  43.0036 116.1668 0001184 267.7660  92.3047 15.02537211119486
STARLINK-30178          
1 57447U 23105T   25260.99062859 -.00000192  00000+0  87749-6 0  9994
2 57447  43.0021 119.9191 0000988 267.8524  92.2205 15.02533174119584
STARLINK-30196          
1 57448U 23105U   25261.04711768 -.00000039  00000+0  12151-4 0  9995
2 57448  43.0010 119.4819 0001030 265.5869  94.4856 15.02530182119437
STARLINK-30225          
1 57449U 23105V   25260.97730895 -.00000678  00000+0 -35150-4 0  9993
2 57449  43.0046 119.8162 0000980 253.1042 106.9693 15.02534229119648
STARLINK-30217          
1 57450U 23105W   25260.96761878 -.00000442  00000+0 -17640-4 0  9992
2 57450  43.0025 107.0612 0001271 265.1113  94.9584 15.02535170119733
STARLINK-30216          
1 57451U 23105X   25260.97398329 -.00003152  00000+0 -21839-3 0  9996
2 57451  43.0037 119.8061 0000374 333.9577  26.1246 15.02529632119421
STARLINK-30165          
1 57457U 23107A   25261.20177192  .00000219  00000+0  31266-4 0  9999
2 57457  43.0017 196.4865 0000963 266.9986  93.0746 15.02531044119159
STARLINK-30140          
1 57458U 23107B   25261.19844666 -.00011017  00000+0 -80097-3 0  9990
2 57458  43.0022 196.4619 0001216 279.8286  80.2419 15.02574023119161
STARLINK-30185          
1 57459U 23107C   25261.19509565  .00006842  00000+0  52132-3 0  9994
2 57459  42.9965 196.4375 0000729  18.7584 341.3285 15.02518904119162
STARLINK-30077          
1 57460U 23107D   25261.19178945 -.00000816  00000+0 -45366-4 0  9999
2 57460  43.0032 196.4112 0001407 288.1295  71.9394 15.02516080119166
STARLINK-30229          
1 57461U 23107E   25259.54314961  .00000019  00000+0  16509-4 0  9996
2 57461  43.0035 205.5355 0001117 273.9880  86.0835 15.02537739118914
STARLINK-30088          
1 57462U 23107F   25261.18843325  .00001547  00000+0  12954-3 0  9997
2 57462  42.9969 196.3797 0000492 208.2949 151.7867 15.02545351119160
STARLINK-30091          
1 57463U 23107G   25261.18179898  .00001290  00000+0  11058-3 0  9994
2 57463  43.0027 196.3351 0001062 274.4056  85.6665 15.02516844119168
STARLINK-30116          
1 57465U 23107J   25261.18290361  .00001214  00000+0  10494-3 0  9994
2 57465  43.0011 196.3432 0001142 269.2293  90.8419 15.02542531119164
STARLINK-30092          
1 57467U 23107L   25260.24444642 -.00000917  00000+0 -52824-4 0  9990
2 57467  43.0023 201.3405 0001035 258.8238 101.2488 15.02529853119020
